{"fetched_at":"2026-03-30T06:02:59Z","count":15439,"tles":[{"name":"STARLINK-4756","line1":"1 53826U 22114J   26087.64416203 -.00000509  00000+0 -13905-4 0  9990","line2":"2 53826  53.2177 218.9757 0001366  90.9679 269.1469 15.08838698195699","category":"Starlink"}]}